{
    "links": {
        "self": "http://www.neowsapp.com/rest/v1/neo/3794981?api_key=iIulBulltgU6a56xZRHN4H3l9WmuAYTsLGpBGhQ2"
    },
    "id": "3794981",
    "neo_reference_id": "3794981",
    "name": "(2017 YT1)",
    "designation": "2017 YT1",
    "nasa_jpl_url": "http://ssd.jpl.nasa.gov/sbdb.cgi?sstr=3794981",
    "absolute_magnitude_h": 24.8,
    "estimated_diameter": {
        "kilometers": {
            "estimated_diameter_min": 0.0291443905,
            "estimated_diameter_max": 0.0651688382
        },
        "meters": {
            "estimated_diameter_min": 29.1443904535,
            "estimated_diameter_max": 65.1688382168
        },
        "miles": {
            "estimated_diameter_min": 0.018109479,
            "estimated_diameter_max": 0.0404940262
        },
        "feet": {
            "estimated_diameter_min": 95.6180819754,
            "estimated_diameter_max": 213.8085311752
        }
    },
    "is_potentially_hazardous_asteroid": false,
    "close_approach_data": [
        {
            "close_approach_date": "2017-12-20",
            "close_approach_date_full": "2017-Dec-20 04:25",
            "epoch_date_close_approach": 1513743900000,
            "relative_velocity": {
                "kilometers_per_second": "21.0582341019",
                "kilometers_per_hour": "75809.6427668483",
                "miles_per_hour": "47105.1638625453"
            },
            "miss_distance": {
                "astronomical": "0.0205811125",
                "lunar": "8.0060527625",
                "kilometers": "3078890.592230375",
                "miles": "1913133.900814175"
            },
            "orbiting_body": "Earth"
        }
    ],
    "orbital_data": {
        "orbit_id": "5",
        "orbit_determination_date": "2017-12-28 06:24:32",
        "first_observation_date": "2017-12-22",
        "last_observation_date": "2017-12-28",
        "data_arc_in_days": 6,
        "observations_used": 35,
        "orbit_uncertainty": "8",
        "minimum_orbit_intersection": ".0204498",
        "jupiter_tisserand_invariant": "3.547",
        "epoch_osculation": "2458111.5",
        "eccentricity": ".6986464394028634",
        "semi_major_axis": "1.947594153559792",
        "inclination": "1.926967766320562",
        "ascending_node_longitude": "126.3185603633385",
        "orbital_period": "992.7642284019602",
        "perihelion_distance": ".5869144327734096",
        "perihelion_argument": "232.8010281139408",
        "aphelion_distance": "3.308273874346174",
        "perihelion_time": "2458061.730497314102",
        "mean_anomaly": "18.04760934604189",
        "mean_motion": ".362623863451937",
        "equinox": "J2000",
        "orbit_class": {
            "orbit_class_type": "APO",
            "orbit_class_description": "Near-Earth asteroid orbits which cross the Earth’s orbit similar to that of 1862 Apollo",
            "orbit_class_range": "a (semi-major axis) > 1.0 AU; q (perihelion) < 1.017 AU"
        }
    },
    "is_sentry_object": false
}